{
  "type": "FeatureCollection",
  "features": [
    {
      "type": "Feature",
      "properties": {
        "norad_id": 24946,
        "name": "IRIDIUM 33",
        "group": "iridium-33-debris",
        "lat": 30.548270092084977,
        "lon": 71.24828489337928,
        "alt_km": 778.232529883202,
        "timestamp": "2025-12-10T14:53:37.472935+00:00",
        "meta_object_name": "IRIDIUM 33",
        "meta_object_id": "1997-051C",
        "meta_epoch": "2025-12-10T06:23:01.953312",
        "meta_mean_motion": 14.35034693,
        "meta_eccentricity": 0.00067534,
        "meta_inclination": 86.3869,
        "meta_ra_of_asc_node": 69.26,
        "meta_arg_of_pericenter": 209.402,
        "meta_mean_anomaly": 150.6797,
        "meta_ephemeris_type": 0,
        "meta_classification_type": "U",
        "meta_norad_cat_id": 24946,
        "meta_element_set_no": 999,
        "meta_rev_at_epoch": 47799,
        "meta_bstar": 0.00019699715,
        "meta_mean_motion_dot": 5.81e-06,
        "meta_mean_motion_ddot": 0,
        "tle_line1": "1 24946U 97051C   25344.26599483  .00000581  00000+0  19700-3 0  9994",
        "tle_line2": "2 24946  86.3869  69.2600 0006753 209.4020 150.6797 14.35034693477997"
      },
      "geometry": {
        "type": "Point",
        "coordinates": [
          71.24828489337928,
          30.548270092084977
        ]
      }
    },
    {
      "type": "Feature",
      "properties": {
        "norad_id": 33773,
        "name": "IRIDIUM 33 DEB",
        "group": "iridium-33-debris",
        "lat": -74.40872376376876,
        "lon": 48.453754258612754,
        "alt_km": 761.107898017337,
        "timestamp": "2025-12-10T14:53:37.473027+00:00",
        "meta_object_name": "IRIDIUM 33 DEB",
        "meta_object_id": "1997-051L",
        "meta_epoch": "2025-12-10T06:55:15.093696",
        "meta_mean_motion": 14.43248623,
        "meta_eccentricity": 0.00122506,
        "meta_inclination": 86.4014,
        "meta_ra_of_asc_node": 61.6283,
        "meta_arg_of_pericenter": 153.6109,
        "meta_mean_anomaly": 206.5718,
        "meta_ephemeris_type": 0,
        "meta_classification_type": "U",
        "meta_norad_cat_id": 33773,
        "meta_element_set_no": 999,
        "meta_rev_at_epoch": 88312,
        "meta_bstar": 0.00049327566,
        "meta_mean_motion_dot": 1.68e-05,
        "meta_mean_motion_ddot": 0,
        "tle_line1": "1 33773U 97051L   25344.28836914  .00001680  00000+0  49328-3 0  9997",
        "tle_line2": "2 33773  86.4014  61.6283 0012250 153.6109 206.5718 14.43248623883127"
      },
      "geometry": {
        "type": "Point",
        "coordinates": [
          48.453754258612754,
          -74.40872376376876
        ]
      }
    },
    {
      "type": "Feature",
      "properties": {
        "norad_id": 33775,
        "name": "IRIDIUM 33 DEB",
        "group": "iridium-33-debris",
        "lat": 21.980013790403113,
        "lon": 51.929053812601786,
        "alt_km": 761.0304798762227,
        "timestamp": "2025-12-10T14:53:37.473042+00:00",
        "meta_object_name": "IRIDIUM 33 DEB",
        "meta_object_id": "1997-051N",
        "meta_epoch": "2025-12-10T05:02:38.383008",
        "meta_mean_motion": 14.41460107,
        "meta_eccentricity": 0.0014015,
        "meta_inclination": 86.3639,
        "meta_ra_of_asc_node": 50.6335,
        "meta_arg_of_pericenter": 162.3893,
        "meta_mean_anomaly": 251.5008,
        "meta_ephemeris_type": 0,
        "meta_classification_type": "U",
        "meta_norad_cat_id": 33775,
        "meta_element_set_no": 999,
        "meta_rev_at_epoch": 88104,
        "meta_bstar": 0.0005230083,
        "meta_mean_motion_dot": 1.717e-05,
        "meta_mean_motion_ddot": 0,
        "tle_line1": "1 33775U 97051N   25344.21016647  .00001717  00000+0  52301-3 0  9991",
        "tle_line2": "2 33775  86.3639  50.6335 0014015 162.3893 251.5008 14.41460107881047"
      },
      "geometry": {
        "type": "Point",
        "coordinates": [
          51.929053812601786,
          21.980013790403113
        ]
      }
    },
    {
      "type": "Feature",
      "properties": {
        "norad_id": 33776,
        "name": "IRIDIUM 33 DEB",
        "group": "iridium-33-debris",
        "lat": -82.39366114225137,
        "lon": 53.570093779955336,
        "alt_km": 769.9352196421814,
        "timestamp": "2025-12-10T14:53:37.473055+00:00",
        "meta_object_name": "IRIDIUM 33 DEB",
        "meta_object_id": "1997-051P",
        "meta_epoch": "2025-12-10T07:10:53.796000",
        "meta_mean_motion": 14.38228746,
        "meta_eccentricity": 0.00140513,
        "meta_inclination": 86.4037,
        "meta_ra_of_asc_node": 81.8007,
        "meta_arg_of_pericenter": 198.4306,
        "meta_mean_anomaly": 215.4156,
        "meta_ephemeris_type": 0,
        "meta_classification_type": "U",
        "meta_norad_cat_id": 33776,
        "meta_element_set_no": 999,
        "meta_rev_at_epoch": 88047,
        "meta_bstar": 0.00052587235,
        "meta_mean_motion_dot": 1.618e-05,
        "meta_mean_motion_ddot": 0,
        "tle_line1": "1 33776U 97051P   25344.29923375  .00001618  00000+0  52587-3 0  9991",
        "tle_line2": "2 33776  86.4037  81.8007 0014051 198.4306 215.4156 14.38228746880478"
      },
      "geometry": {
        "type": "Point",
        "coordinates": [
          53.570093779955336,
          -82.39366114225137
        ]
      }
    },
    {
      "type": "Feature",
      "properties": {
        "norad_id": 33777,
        "name": "IRIDIUM 33 DEB",
        "group": "iridium-33-debris",
        "lat": -67.80382843295969,
        "lon": 27.19514879483509,
        "alt_km": 711.7725368423189,
        "timestamp": "2025-12-10T14:53:37.473067+00:00",
        "meta_object_name": "IRIDIUM 33 DEB",
        "meta_object_id": "1997-051Q",
        "meta_epoch": "2025-12-10T05:18:24.096672",
        "meta_mean_motion": 14.55584185,
        "meta_eccentricity": 0.00050752,
        "meta_inclination": 86.3784,
        "meta_ra_of_asc_node": 36.2988,
        "meta_arg_of_pericenter": 260.7341,
        "meta_mean_anomaly": 99.3293,
        "meta_ephemeris_type": 0,
        "meta_classification_type": "U",
        "meta_norad_cat_id": 33777,
        "meta_element_set_no": 999,
        "meta_rev_at_epoch": 88497,
        "meta_bstar": 0.0013185799,
        "meta_mean_motion_dot": 5.769e-05,
        "meta_mean_motion_ddot": 0,
        "tle_line1": "1 33777U 97051Q   25344.22111223  .00005769  00000+0  13186-2 0  9998",
        "tle_line2": "2 33777  86.3784  36.2988 0005075 260.7341  99.3293 14.55584185884978"
      },
      "geometry": {
        "type": "Point",
        "coordinates": [
          27.19514879483509,
          -67.80382843295969
        ]
      }
    },
    {
      "type": "Feature",
      "properties": {
        "norad_id": 33850,
        "name": "IRIDIUM 33 DEB",
        "group": "iridium-33-debris",
        "lat": -2.1645660447282635,
        "lon": 30.95249633540767,
        "alt_km": 763.1579784515552,
        "timestamp": "2025-12-10T14:53:37.473078+00:00",
        "meta_object_name": "IRIDIUM 33 DEB",
        "meta_object_id": "1997-051T",
        "meta_epoch": "2025-12-10T03:29:36.109248",
        "meta_mean_motion": 14.42137967,
        "meta_eccentricity": 0.00119531,
        "meta_inclination": 86.3419,
        "meta_ra_of_asc_node": 31.2952,
        "meta_arg_of_pericenter": 168.989,
        "meta_mean_anomaly": 244.4174,
        "meta_ephemeris_type": 0,
        "meta_classification_type": "U",
        "meta_norad_cat_id": 33850,
        "meta_element_set_no": 999,
        "meta_rev_at_epoch": 88115,
        "meta_bstar": 0.00047039968,
        "meta_mean_motion_dot": 1.567e-05,
        "meta_mean_motion_ddot": 0,
        "tle_line1": "1 33850U 97051T   25344.14555682  .00001567  00000+0  47040-3 0  9991",
        "tle_line2": "2 33850  86.3419  31.2952 0011953 168.9890 244.4174 14.42137967881157"
      },
      "geometry": {
        "type": "Point",
        "coordinates": [
          30.95249633540767,
          -2.1645660447282635
        ]
      }
    },
    {
      "type": "Feature",
      "properties": {
        "norad_id": 33853,
        "name": "IRIDIUM 33 DEB",
        "group": "iridium-33-debris",
        "lat": -8.568845297291702,
        "lon": -9.863390019325692,
        "alt_km": 947.672933025744,
        "timestamp": "2025-12-10T14:53:37.473090+00:00",
        "meta_object_name": "IRIDIUM 33 DEB",
        "meta_object_id": "1997-051W",
        "meta_epoch": "2025-12-09T12:13:24.016800",
        "meta_mean_motion": 13.99031995,
        "meta_eccentricity": 0.02069783,
        "meta_inclination": 85.9998,
        "meta_ra_of_asc_node": 351.2277,
        "meta_arg_of_pericenter": 245.8173,
        "meta_mean_anomaly": 269.932,
        "meta_ephemeris_type": 0,
        "meta_classification_type": "U",
        "meta_norad_cat_id": 33853,
        "meta_element_set_no": 999,
        "meta_rev_at_epoch": 85300,
        "meta_bstar": 0.0029960339,
        "meta_mean_motion_dot": 5.22e-05,
        "meta_mean_motion_ddot": 0,
        "tle_line1": "1 33853U 97051W   25343.50930575  .00005220  00000+0  29960-2 0  9991",
        "tle_line2": "2 33853  85.9998 351.2277 0206978 245.8173 269.9320 13.99031995853007"
      },
      "geometry": {
        "type": "Point",
        "coordinates": [
          -9.863390019325692,
          -8.568845297291702
        ]
      }
    }
  ]
}